[{"OBJECT_NAME":"ALOS-2","OBJECT_ID":"2014-029A","EPOCH":"2026-03-09T22:07:16.177728","MEAN_MOTION":14.79502935,"ECCENTRICITY":0.00014489,"INCLINATION":97.9188,"RA_OF_ASC_NODE":167.5154,"ARG_OF_PERICENTER":94.7043,"MEAN_ANOMALY":265.4334,"EPHEMERIS_TYPE":0,"CLASSIFICATION_TYPE":"U","NORAD_CAT_ID":39766,"ELEMENT_SET_NO":999,"REV_AT_EPOCH":63690,"BSTAR":0.00010743863,"MEAN_MOTION_DOT":7.52e-6,"MEAN_MOTION_DDOT":0},{"OBJECT_NAME":"GAOFEN-12 01","OBJECT_ID":"2019-082A","EPOCH":"2026-03-09T23:49:51.973824","MEAN_MOTION":14.80365933,"ECCENTRICITY":0.00017748,"INCLINATION":97.8143,"RA_OF_ASC_NODE":77.9831,"ARG_OF_PERICENTER":56.9861,"MEAN_ANOMALY":303.1522,"EPHEMERIS_TYPE":0,"CLASSIFICATION_TYPE":"U","NORAD_CAT_ID":44819,"ELEMENT_SET_NO":999,"REV_AT_EPOCH":33941,"BSTAR":9.6158816e-5,"MEAN_MOTION_DOT":6.83e-6,"MEAN_MOTION_DDOT":0}]
